NORAD_CAT_ID,OBJECT_NAME,OBJECT_TYPE,EPOCH,MEAN_MOTION,ECCENTRICITY,INCLINATION,RA_OF_ASC_NODE,ARG_OF_PERICENTER,MEAN_ANOMALY,BSTAR,MEAN_MOTION_DOT,MEAN_MOTION_DDOT,TLE_LINE0,TLE_LINE1,TLE_LINE2,SEMIMAJOR_AXIS,PERIOD,APOGEE,PERIGEE,DECAYED
52859.0,STARLINK-4196,PAYLOAD,2022-06-22 16:00:00,15.90772783,0.0041619,53.2176,20.1034,56.2708,198.9577,-0.002473,-0.00856855,0.00022881,0 STARLINK-4196,1 52859U 22062AF  22173.66667824 -.00856855  22881-3 -24730-2 0  9992,2 52859  53.2176  20.1034 0041619  56.2708 198.9577 15.90772783  1303,6678.255999999999,90.522,327.915,272.327,0.0
52859.0,STARLINK-4196,PAYLOAD,2022-06-23 06:00:00,15.89810347,0.0035957,53.2174,17.1434,57.7117,299.0679,-0.00257,-0.00829791,0.000214,0 STARLINK-4196,1 52859U 22062AF  22174.25001157 -.00829791  21400-3 -25700-2 0  9992,2 52859  53.2174  17.1434 0035957  57.7117 299.0679 15.89810347  1391,6680.951,90.577,326.839,278.793,0.0
52859.0,STARLINK-4196,PAYLOAD,2022-06-23 14:00:01,15.89254807,0.003403,53.2177,15.4526,58.0867,47.2566,-0.0025717,-0.00802108,0.00020029,0 STARLINK-4196,1 52859U 22062AF  22174.58334491 -.00802108  20029-3 -25717-2 0  9995,2 52859  53.2177  15.4526 0034030  58.0867  47.2566 15.89254807  1441,6682.5080000000025,90.609,327.1140000000001,281.632,0.0
52859.0,STARLINK-4196,PAYLOAD,2022-06-23 22:00:00,15.88733493,0.0030887,53.2177,13.7664,58.2124,155.0293,-0.0028139,-0.00846346,0.00021949,0 STARLINK-4196,1 52859U 22062AF  22174.91667824 -.00846346  21949-3 -28139-2 0  9996,2 52859  53.2177  13.7664 0030887  58.2124 155.0293 15.88733493  1491,6683.97,90.638,326.4790000000001,285.19,0.0
52859.0,STARLINK-4196,PAYLOAD,2022-06-24 06:00:02,15.88192113,0.0028438,53.2174,12.0777,57.8606,262.703,-0.0029199,-0.00848923,0.00021958,0 STARLINK-4196,1 52859U 22062AF  22175.25002315 -.00848923  21958-3 -29199-2 0  9992,2 52859  53.2174  12.0777 0028438  57.8606 262.7030 15.88192113  1554,6685.489000000001,90.669,326.366,288.341,0.0
52859.0,STARLINK-4196,PAYLOAD,2022-06-24 14:00:01,15.87628955,0.0026353,53.2174,10.3914,59.1865,7.9214,-0.0028642,-0.00805789,0.00019889,0 STARLINK-4196,1 52859U 22062AF  22175.58334491 -.00805789  19889-3 -28642-2 0  9996,2 52859  53.2174  10.3914 0026353  59.1865   7.9214 15.87628955  1307,6687.069,90.701,326.557,291.312,0.0
52859.0,STARLINK-4196,PAYLOAD,2022-06-24 20:00:01,15.87225761,0.002472,53.2172,9.1298,58.4179,358.2122,-0.0029596,-0.00813028,0.00020136,0 STARLINK-4196,1 52859U 22062AF  22175.83334491 -.00813028  20136-3 -29596-2 0  9995,2 52859  53.2172   9.1298 0024720  58.4179 358.2122 15.87225761  1647,6688.2019999999975,90.724,326.6,293.534,0.0
52859.0,STARLINK-4196,PAYLOAD,2022-06-24 22:00:01,15.87096766,0.00242,53.2176,8.709,58.7504,114.3701,-0.0030339,-0.00827082,0.00020741,0 STARLINK-4196,1 52859U 22062AF  22175.91668981 -.00827082  20741-3 -30339-2 0  9992,2 52859  53.2176   8.7090 0024200  58.7504 114.3701 15.87096766  1302,6688.564,90.732,326.616,294.243,0.0
52859.0,STARLINK-4196,PAYLOAD,2022-06-25 14:00:01,15.86010474,0.0018729,53.2178,5.3423,60.5063,322.4967,-0.0032232,-0.00760608,0.0,0 STARLINK-4196,1 52859U 22062AF  22176.58334491 -.00760608  00000-0 -32232-2 0  9999,2 52859  53.2178   5.3423 0018729  60.5063 322.4967 15.86010474  1764,6691.618,90.794,326.016,300.95,0.0
52859.0,STARLINK-4196,PAYLOAD,2022-06-25 22:00:00,15.85461261,0.0016163,53.2175,3.664,59.8715,67.128,-0.0032656,-0.00747757,0.0,0 STARLINK-4196,1 52859U 22062AF  22176.91667824 -.00747757  00000-0 -32656-2 0  9995,2 52859  53.2175   3.6640 0016163  59.8715  67.1280 15.85461261  1302,6693.163000000001,90.825,325.846,304.21,0.0
52859.0,STARLINK-4196,PAYLOAD,2022-06-26 14:00:01,15.84393411,0.0011471,53.2177,0.3051,58.1537,274.9426,-0.0036101,-0.00777041,0.0,0 STARLINK-4196,1 52859U 22062AF  22177.58335648 -.00777041  00000-0 -36101-2 0  9993,2 52859  53.2177   0.3051 0011471  58.1537 274.9426 15.84393411  1923,6696.17,90.887,325.716,310.3540000000001,0.0
52859.0,STARLINK-4196,PAYLOAD,2022-06-26 22:00:00,15.83832593,0.0008801999999999,53.2176,358.6308,55.5825,19.493,-0.0035492,-0.0074411999999999,0.0,0 STARLINK-4196,1 52859U 22062AF  22177.91667824 -.00744120  00000-0 -35492-2 0  9998,2 52859  53.2176 358.6308 0008802  55.5825  19.4930 15.83832593  1303,6697.751,90.919,325.511,313.721,0.0
52859.0,STARLINK-4196,PAYLOAD,2022-06-27 06:00:00,15.83302346,0.0006332,53.2176,356.9538,49.5647,126.8955,-0.0037581,-0.00764712,0.0,0 STARLINK-4196,1 52859U 22062AF  22178.25001157 -.00764712  00000-0 -37581-2 0  9997,2 52859  53.2176 356.9538 0006332  49.5647 126.8955 15.83302346  2028,6699.246,90.949,325.353,316.869,0.0
52859.0,STARLINK-4196,PAYLOAD,2022-06-27 14:00:01,15.82770867,0.0004456,53.2176,355.2803,41.3426,235.8497,-0.0039644,-0.00783782,0.0,0 STARLINK-4196,1 52859U 22062AF  22178.58334491 -.00783782  00000-0 -39644-2 0  9993,2 52859  53.2176 355.2803 0004456  41.3426 235.8497 15.82770867  1303,6700.746,90.98,325.597,319.625,0.0
52859.0,STARLINK-4196,PAYLOAD,2022-06-27 22:00:00,15.82215096,0.0003138,53.2173,353.6098,22.4178,354.8623,-0.0039419,-0.0076057,0.0,0 STARLINK-4196,1 52859U 22062AF  22178.91667824 -.00760570  00000-0 -39419-2 0  9999,2 52859  53.2173 353.6098 0003138  22.4178 354.8623 15.82215096  2131,6702.315,91.012,326.283,322.077,0.0
52859.0,STARLINK-4196,PAYLOAD,2022-06-28 14:00:01,15.81132671,0.0002787,53.2178,350.2674,14.0473,201.4454,-0.0041698,-0.00764274,0.0,0 STARLINK-4196,1 52859U 22062AF  22179.58334491 -.00764274  00000-0 -41698-2 0  9991,2 52859  53.2178 350.2674 0002787  14.0473 201.4454 15.81132671  1306,6705.373000000001,91.074,329.107,325.37,0.0
52859.0,STARLINK-4196,PAYLOAD,2022-06-28 22:00:00,15.80589358,0.0002583999999999,53.2175,348.6007,13.3587,300.2616,-0.0042659,-0.00762473,0.0,0 STARLINK-4196,1 52859U 22062AF  22179.91667824 -.00762473  00000-0 -42659-2 0  9994,2 52859  53.2175 348.6007 0002584  13.3587 300.2616 15.80589358  1302,6706.91,91.105,330.5080000000001,327.0420000000001,0.0
52859.0,STARLINK-4196,PAYLOAD,2022-06-29 14:00:01,15.79505031,0.000327,53.2175,345.2663,3.643,144.3334,-0.0044924,-0.00763928,0.0,0 STARLINK-4196,1 52859U 22062AF  22180.58334491 -.00763928  00000-0 -44924-2 0  9993,2 52859  53.2175 345.2663 0003270   3.6430 144.3334 15.79505031  1303,6709.979,91.168,334.038,329.65,0.0
52859.0,STARLINK-4196,PAYLOAD,2022-06-29 22:00:00,15.7895177,0.0003185,53.2173,343.6036,264.8314,339.3204,-0.004483,-0.00744908,0.0,0 STARLINK-4196,1 52859U 22062AF  22180.91667824 -.00744908  00000-0 -44830-2 0  9992,2 52859  53.2173 343.6036 0003185 264.8314 339.3204 15.78951770  1300,6711.545999999999,91.2,335.5490000000001,331.274,0.0
52859.0,STARLINK-4196,PAYLOAD,2022-06-30 14:00:01,15.7788027,0.0001419999999999,53.2177,340.2776,19.0726,55.4649,-0.004866,-0.00767538,0.0,0 STARLINK-4196,1 52859U 22062AF  22181.58334491 -.00767538  00000-0 -48660-2 0  9996,2 52859  53.2177 340.2776 0001420  19.0726  55.4649 15.77880270  1309,6714.585,91.262,337.403,335.496,0.0
52859.0,STARLINK-4196,PAYLOAD,2022-06-30 22:00:00,15.77330844,0.0001418,53.2173,338.6185,46.6279,122.1283,-0.0049012,-0.00755305,0.0,0 STARLINK-4196,1 52859U 22062AF  22181.91667824 -.00755305  00000-0 -49012-2 0  9993,2 52859  53.2173 338.6185 0001418  46.6279 122.1283 15.77330844  1309,6716.144,91.293,338.961,337.056,0.0
52859.0,STARLINK-4196,PAYLOAD,2022-07-01 14:00:01,15.76250676,0.0001296999999999,53.2175,335.3005,45.5704,309.6632,-0.0052063999999999,-0.00763757,0.0,0 STARLINK-4196,1 52859U 22062AF  22182.58334491 -.00763757  00000-0 -52064-2 0  9999,2 52859  53.2175 335.3005 0001297  45.5704 309.6632 15.76250676  1305,6719.212,91.356,341.9480000000001,340.205,0.0
52859.0,STARLINK-4196,PAYLOAD,2022-07-01 22:00:00,15.75706034,0.0001131,53.2172,333.6453,60.6563,26.8384,-0.0052998,-0.00759284,0.0,0 STARLINK-4196,1 52859U 22062AF  22182.91667824 -.00759284  00000-0 -52998-2 0  9991,2 52859  53.2172 333.6453 0001131  60.6563  26.8384 15.75706034  2764,6720.76,91.388,343.385,341.865,0.0
52859.0,STARLINK-4196,PAYLOAD,2022-07-02 14:00:01,15.74621386,0.0001511,53.2177,330.3358,41.7271,228.335,-0.0055658,-0.00760275,0.0,0 STARLINK-4196,1 52859U 22062AF  22183.58334491 -.00760275  00000-0 -55658-2 0  9994,2 52859  53.2177 330.3358 0001511  41.7271 228.3350 15.74621386  1301,6723.846,91.451,346.727,344.695,0.0
52859.0,STARLINK-4196,PAYLOAD,2022-07-02 22:00:00,15.7407505,0.0001146,53.2171,328.6842,58.3738,301.994,-0.0056306,-0.00751691,0.0,0 STARLINK-4196,1 52859U 22062AF  22183.91667824 -.00751691  00000-0 -56306-2 0  9993,2 52859  53.2171 328.6842 0001146  58.3738 301.9940 15.74075050  2922,6725.401999999999,91.482,348.037,346.496,0.0
52859.0,STARLINK-4196,PAYLOAD,2022-07-03 14:00:01,15.73202305,0.0001587,53.2174,325.3825,39.9134,139.2234,2.8324e-05,3.357e-05,0.0,0 STARLINK-4196,1 52859U 22062AF  22184.58334491  .00003357  00000-0  28324-4 0  9996,2 52859  53.2174 325.3825 0001587  39.9134 139.2234 15.73202305  3028,6727.889,91.533,350.821,348.686,0.0
52859.0,STARLINK-4196,PAYLOAD,2022-07-03 22:00:00,15.73179057,0.0001564999999999,53.2159,323.7359,37.1496,230.7818,0.00034541,0.00048091,0.0,0 STARLINK-4196,1 52859U 22062AF  22184.91667824  .00048091  00000-0  34541-3 0  9993,2 52859  53.2159 323.7359 0001565  37.1496 230.7818 15.73179057  3080,6727.955,91.534,350.87300000000016,348.767,0.0
52859.0,STARLINK-4196,PAYLOAD,2022-07-04 14:00:01,15.73240579,0.0001625,53.2161,320.4364,41.2331,44.5521,-1.164e-05,-2.257e-05,0.0,0 STARLINK-4196,1 52859U 22062AF  22185.58334491 -.00002257  00000-0 -11640-4 0  9990,2 52859  53.2161 320.4364 0001625  41.2331  44.5521 15.73240579  3185,6727.779,91.531,350.73800000000006,348.551,0.0
52859.0,STARLINK-4196,PAYLOAD,2022-07-04 22:00:00,15.73267348,0.0001734,53.2154,318.7873,37.1651,137.6098,0.00028762,0.00040055,0.0,0 STARLINK-4196,1 52859U 22062AF  22185.91667824  .00040055  00000-0  28762-3 0  9994,2 52859  53.2154 318.7873 0001734  37.1651 137.6098 15.73267348  1300,6727.703,91.529,350.735,348.402,0.0
